GLOBALSTAR M075         
1 37192U 10054E   25298.90648497 -.00000096  00000+0  41688-4 0  9991
2 37192  51.9923 143.5257 0000919  85.5803  20.7446 12.62269315692353
GLOBALSTAR M073         
1 37193U 10054F   25298.83503714 -.00000109  00000+0 -26467-4 0  9990
2 37193  52.0072  57.6605 0000624 125.9329  14.4322 12.62263628694332
GLOBALSTAR M083         
1 37739U 11033A   25298.50326880 -.00000087  00000+0  94927-4 0  9995
2 37739  51.9884   7.2225 0000478 132.8435 240.9138 12.62263860663311
GLOBALSTAR M088         
1 37740U 11033B   25298.43196200 -.00000092  00000+0  66661-4 0  9990
2 37740  52.0211 273.3002 0000582  62.3331 105.8460 12.62269176658841
GLOBALSTAR M091         
1 37741U 11033C   25298.89225897 -.00000075  00000+0  16007-3 0  9995
2 37741  51.9991 235.2099 0000740  77.8536 323.4643 12.62260916659690
GLOBALSTAR M085         
1 37742U 11033D   25298.88770082 -.00000066  00000+0  20843-3 0  9999
2 37742  52.0114 186.3123 0000947  88.8362 351.7921 12.62266235660204
GLOBALSTAR M081         
1 37743U 11033E   25298.66615771 -.00000066  00000+0  21223-3 0  9992
2 37743  51.9948 189.6895 0000722  82.8251 310.3927 12.62269655660321
GLOBALSTAR M089         
1 37744U 11033F   25298.85952450 -.00000094  00000+0  56422-4 0  9993
2 37744  51.9909 143.3035 0000802  71.0758 302.0793 12.62272168661191
